SEEDS II (CO-66)        
1 32791U 08021J   26068.92109284  .00023758  00000+0  84213-3 0  9995
2 32791  97.7519  62.3611 0001448 359.2618   0.8619 15.29097235972108
STARLINK-32317          
1 60918U 24154R   26068.90264559  .00003990  00000+0  14677-3 0  9990
2 60918  53.1585 283.1348 0001027 100.4250 259.6866 15.30195816 86368
